{
"type": "FeatureCollection",
"name": "lyon_drt_area",
"crs": { "type": "name", "properties": { "name": "urn:ogc:def:crs:OGC:1.3:CRS84" } },
"features": [
{ "type": "Feature", "properties": { "name": "cutter", "source_communes": "01224,01361,01378", "radius_km": 40.0, "centroid_lat": 45.81500995538255, "centroid_lon": 5.1964660248661332 }, "geometry": { "type": "Polygon", "coordinates": [ [ [ 5.7112774003598, 45.803818084273907 ], [ 5.707068709216754, 45.768592989573825 ], [ 5.697955216086779, 45.733825647710852 ], [ 5.684033515033918, 45.699849721430482 ], [ 5.665445662735102, 45.666990670200477 ], [ 5.642377509429058, 45.635562683955911 ], [ 5.615056653291995, 45.605865744757665 ], [ 5.583750047163599, 45.578182841250637 ], [ 5.548761287757047, 45.552777358756238 ], [ 5.510427618190038, 45.529890665718248 ], [ 5.469116674952331, 45.509739915071897 ], [ 5.425223010366047, 45.492516076954708 ], [ 5.379164421285416, 45.478382217042729 ], [ 5.331378114308324, 45.467472032693962 ], [ 5.282316737212612, 45.459888657021743 ], [ 5.232444305757612, 45.455703739005095 ], [ 5.182232054468308, 45.454956805773051 ], [ 5.132154239596033, 45.457654911266161 ], [ 5.08268392216413, 45.463772573572768 ], [ 5.034288758883606, 45.473252001348492 ], [ 4.987426828772843, 45.486003607841106 ], [ 4.94254252353296, 45.501906809146583 ], [ 4.900062530097878, 45.520811101400525 ], [ 4.860391934263625, 45.542537409657712 ], [ 4.823910474859483, 45.566879699215129 ], [ 4.79096897849692, 45.593606838095162 ], [ 4.76188600545286, 45.622464697320162 ], [ 4.736944737635032, 45.653178473488545 ], [ 4.71639013975553, 45.685455216015669 ], [ 4.700426424717373, 45.718986539249222 ], [ 4.689214853710109, 45.753451497535998 ], [ 4.682871900529593, 45.788519599231819 ], [ 4.681467808106104, 45.823853933650184 ], [ 4.685025563076948, 45.859114383076886 ], [ 4.693520311422589, 45.893960890283807 ], [ 4.706879234666382, 45.928056750504304 ], [ 4.724981901906992, 45.961071895632969 ], [ 4.747661108025349, 45.992686137533568 ], [ 4.774704202828598, 46.022592336827323 ], [ 4.80585490973526, 46.050499463428125 ], [ 4.84081562597117, 46.076135515431396 ], [ 4.879250189265572, 46.099250263770557 ], [ 4.920787088865604, 46.119617791351565 ], [ 4.965023091501009, 46.137038797162177 ], [ 5.011527245918631, 46.151342638126138 ], [ 5.059845222964666, 46.162389084208968 ], [ 5.109503942117402, 46.170069765452773 ], [ 5.160016430050909, 46.174309293173103 ], [ 5.210886852408826, 46.17506604143604 ], [ 5.26161565663075, 46.172332579080773 ], [ 5.311704761511289, 46.166135746884912 ], [ 5.36066272825679, 46.15653637890599 ], [ 5.408009848167389, 46.143628671487342 ], [ 5.453283083700446, 46.127539207804013 ], [ 5.496040802510717, 46.108425650061626 ], [ 5.535867248018347, 46.086475115467664 ], [ 5.572376694998326, 46.061902255802032 ], [ 5.605217244456049, 46.034947063756363 ], [ 5.634074218473481, 46.00587243214202 ], [ 5.658673122586281, 45.974961494543251 ], [ 5.67878215038716, 45.942514777991562 ], [ 5.694214212250889, 45.90884719974575 ], [ 5.704828477159751, 45.874284941280287 ], [ 5.710531423410121, 45.839162233123808 ], [ 5.7112774003598, 45.803818084273907 ] ] ] } }
]
}
